{"type": "FeatureCollection", "features": [ {"type": "Feature", "properties": {"norad_id": 34400, "name": "COSMOS 2251 DEB", "group": "cosmos-2251-debris", "lat": -62.00528940146828, "lon": -1.6461035581740215, "alt_km": 415.62291417726556, "timestamp": "2025-12-09T05:43:21.120656+00:00", "meta": {"OBJECT_NAME": "COSMOS 2251 DEB", "OBJECT_ID": "1993-036QR", "EPOCH": "2025-12-08T12:59:00.267648", "MEAN_MOTION": 15.51081243, "ECCENTRICITY": 0.0006239, "INCLINATION": 73.9666, "RA_OF_ASC_NODE": 32.6433, "ARG_OF_PERICENTER": 269.9683, "MEAN_ANOMALY": 90.0815, "EPHEMERIS_TYPE": 0, "CLASSIFICATION_TYPE": "U", "NORAD_CAT_ID": 34400, "ELEMENT_SET_NO": 999, "REV_AT_EPOCH": 89909, "BSTAR": 0.0037967, "MEAN_MOTION_DOT": 0.00227844, "MEAN_MOTION_DDOT": 0}, "tle": {"line1": "1 34400U 93036QR  25342.54097532  .00227844  00000+0  37967-2 0  9993", "line2": "2 34400  73.9666  32.6433 0006239 269.9683  90.0815 15.51081243899092"}}, "geometry": {"type": "Point", "coordinates": [-1.6461035581740215, -62.00528940146828]}}, {"type": "Feature", "properties": {"norad_id": 34409, "name": "COSMOS 2251 DEB", "group": "cosmos-2251-debris", "lat": -49.3260979545955, "lon": -65.93343133579876, "alt_km": 696.6349064820042, "timestamp": "2025-12-09T05:43:21.120667+00:00", "meta": {"OBJECT_NAME": "COSMOS 2251 DEB", "OBJECT_ID": "1993-036RA", "EPOCH": "2025-12-08T09:06:24.073056", "MEAN_MOTION": 14.58011296, "ECCENTRICITY": 0.00796428, "INCLINATION": 74.0629, "RA_OF_ASC_NODE": 315.1189, "ARG_OF_PERICENTER": 30.6242, "MEAN_ANOMALY": 91.4084, "EPHEMERIS_TYPE": 0, "CLASSIFICATION_TYPE": "U", "NORAD_CAT_ID": 34409, "ELEMENT_SET_NO": 999, "REV_AT_EPOCH": 89129, "BSTAR": 0.00046874619, "MEAN_MOTION_DOT": 2.22e-05, "MEAN_MOTION_DDOT": 0}, "tle": {"line1": "1 34409U 93036RA  25342.37944529  .00002220  00000+0  46875-3 0  9998", "line2": "2 34409  74.0629 315.1189 0079642  30.6242  91.4084 14.58011296891295"}}, "geometry": {"type": "Point", "coordinates": [-65.93343133579876, -49.3260979545955]}}, {"type": "Feature", "properties": {"norad_id": 34410, "name": "COSMOS 2251 DEB", "group": "cosmos-2251-debris", "lat": -53.224612900668234, "lon": -113.78839519148066, "alt_km": 531.4401485354228, "timestamp": "2025-12-09T05:43:21.120677+00:00", "meta": {"OBJECT_NAME": "COSMOS 2251 DEB", "OBJECT_ID": "1993-036RB", "EPOCH": "2025-12-08T19:02:13.915104", "MEAN_MOTION": 15.18330254, "ECCENTRICITY": 0.0020957, "INCLINATION": 73.739, "RA_OF_ASC_NODE": 270.1458, "ARG_OF_PERICENTER": 112.3147, "MEAN_ANOMALY": 278.6546, "EPHEMERIS_TYPE": 0, "CLASSIFICATION_TYPE": "U", "NORAD_CAT_ID": 34410, "ELEMENT_SET_NO": 999, "REV_AT_EPOCH": 89714, "BSTAR": 0.0033404, "MEAN_MOTION_DOT": 0.00069601, "MEAN_MOTION_DDOT": 0}, "tle": {"line1": "1 34410U 93036RB  25342.79321661  .00069601  00000+0  33404-2 0  9991", "line2": "2 34410  73.7390 270.1458 0020957 112.3147 278.6546 15.18330254897141"}}, "geometry": {"type": "Point", "coordinates": [-113.78839519148066, -53.224612900668234]}}, {"type": "Feature", "properties": {"norad_id": 34412, "name": "COSMOS 2251 DEB", "group": "cosmos-2251-debris", "lat": -61.044526511740514, "lon": -60.16037567920723, "alt_km": 830.8235126950567, "timestamp": "2025-12-09T05:43:21.120688+00:00", "meta": {"OBJECT_NAME": "COSMOS 2251 DEB", "OBJECT_ID": "1993-036RD", "EPOCH": "2025-12-08T10:06:59.610528", "MEAN_MOTION": 14.47063224, "ECCENTRICITY": 0.01871153, "INCLINATION": 73.9489, "RA_OF_ASC_NODE": 332.7298, "ARG_OF_PERICENTER": 68.83, "MEAN_ANOMALY": 293.2739, "EPHEMERIS_TYPE": 0, "CLASSIFICATION_TYPE": "U", "NORAD_CAT_ID": 34412, "ELEMENT_SET_NO": 999, "REV_AT_EPOCH": 87588, "BSTAR": 0.0015468157, "MEAN_MOTION_DOT": 6.993e-05, "MEAN_MOTION_DDOT": 0}, "tle": {"line1": "1 34412U 93036RD  25342.42152327  .00006993  00000+0  15468-2 0  9999", "line2": "2 34412  73.9489 332.7298 0187115  68.8300 293.2739 14.47063224875882"}}, "geometry": {"type": "Point", "coordinates": [-60.16037567920723, -61.044526511740514]}}, {"type": "Feature", "properties": {"norad_id": 34413, "name": "COSMOS 2251 DEB", "group": "cosmos-2251-debris", "lat": -61.427938266344086, "lon": -120.4835045880671, "alt_km": 763.2684681127621, "timestamp": "2025-12-09T05:43:21.120699+00:00", "meta": {"OBJECT_NAME": "COSMOS 2251 DEB", "OBJECT_ID": "1993-036RE", "EPOCH": "2025-12-08T20:15:33.833376", "MEAN_MOTION": 14.2905018, "ECCENTRICITY": 0.0090844, "INCLINATION": 74.0317, "RA_OF_ASC_NODE": 271.9528, "ARG_OF_PERICENTER": 349.1534, "MEAN_ANOMALY": 78.0567, "EPHEMERIS_TYPE": 0, "CLASSIFICATION_TYPE": "U", "NORAD_CAT_ID": 34413, "ELEMENT_SET_NO": 999, "REV_AT_EPOCH": 87075, "BSTAR": 0.0028237, "MEAN_MOTION_DOT": 7.457e-05, "MEAN_MOTION_DDOT": 0}, "tle": {"line1": "1 34413U 93036RE  25342.84414159  .00007457  00000+0  28237-2 0  9994", "line2": "2 34413  74.0317 271.9528 0090844 349.1534  78.0567 14.29050180870757"}}, "geometry": {"type": "Point", "coordinates": [-120.4835045880671, -61.427938266344086]}}, {"type": "Feature", "properties": {"norad_id": 34420, "name": "COSMOS 2251 DEB", "group": "cosmos-2251-debris", "lat": -67.89084453115069, "lon": -24.45891725103655, "alt_km": 603.4980541398818, "timestamp": "2025-12-09T05:43:21.120709+00:00", "meta": {"OBJECT_NAME": "COSMOS 2251 DEB", "OBJECT_ID": "1993-036RM", "EPOCH": "2025-12-08T19:26:53.161728", "MEAN_MOTION": 14.68280143, "ECCENTRICITY": 0.0106788, "INCLINATION": 74.0337, "RA_OF_ASC_NODE": 111.5596, "ARG_OF_PERICENTER": 233.6042, "MEAN_ANOMALY": 278.4967, "EPHEMERIS_TYPE": 0, "CLASSIFICATION_TYPE": "U", "NORAD_CAT_ID": 34420, "ELEMENT_SET_NO": 999, "REV_AT_EPOCH": 89712, "BSTAR": 0.0004758, "MEAN_MOTION_DOT": 2.958e-05, "MEAN_MOTION_DDOT": 0}, "tle": {"line1": "1 34420U 93036RM  25342.81033752  .00002958  00000+0  47580-3 0  9999", "line2": "2 34420  74.0337 111.5596 0106788 233.6042 278.4967 14.68280143897124"}}, "geometry": {"type": "Point", "coordinates": [-24.45891725103655, -67.89084453115069]}}, {"type": "Feature", "properties": {"norad_id": 34425, "name": "COSMOS 2251 DEB", "group": "cosmos-2251-debris", "lat": 55.400556835060726, "lon": 85.77198045508766, "alt_km": 692.0785791052094, "timestamp": "2025-12-09T05:43:21.120720+00:00", "meta": {"OBJECT_NAME": "COSMOS 2251 DEB", "OBJECT_ID": "1993-036RS", "EPOCH": "2025-12-08T14:40:24.587616", "MEAN_MOTION": 14.62091735, "ECCENTRICITY": 0.0025125, "INCLINATION": 74.0201, "RA_OF_ASC_NODE": 62.429, "ARG_OF_PERICENTER": 189.9381, "MEAN_ANOMALY": 170.1293, "EPHEMERIS_TYPE": 0, "CLASSIFICATION_TYPE": "U", "NORAD_CAT_ID": 34425, "ELEMENT_SET_NO": 999, "REV_AT_EPOCH": 88680, "BSTAR": 0.0010056, "MEAN_MOTION_DOT": 5.048e-05, "MEAN_MOTION_DDOT": 0}, "tle": {"line1": "1 34425U 93036RS  25342.61139569  .00005048  00000+0  10056-2 0  9995", "line2": "2 34425  74.0201  62.4290 0025125 189.9381 170.1293 14.62091735886802"}}, "geometry": {"type": "Point", "coordinates": [85.77198045508766, 55.400556835060726]}}, {"type": "Feature", "properties": {"norad_id": 34429, "name": "COSMOS 2251 DEB", "group": "cosmos-2251-debris", "lat": -25.86178688399843, "lon": 3.6277555514557402, "alt_km": 456.71197049173134, "timestamp": "2025-12-09T05:43:21.120731+00:00", "meta": {"OBJECT_NAME": "COSMOS 2251 DEB", "OBJECT_ID": "1993-036RW", "EPOCH": "2025-12-08T15:03:02.424960", "MEAN_MOTION": 15.39418995, "ECCENTRICITY": 0.0006226, "INCLINATION": 73.9713, "RA_OF_ASC_NODE": 176.9416, "ARG_OF_PERICENTER": 20.7468, "MEAN_ANOMALY": 39.4398, "EPHEMERIS_TYPE": 0, "CLASSIFICATION_TYPE": "U", "NORAD_CAT_ID": 34429, "ELEMENT_SET_NO": 999, "REV_AT_EPOCH": 89385, "BSTAR": 0.005103, "MEAN_MOTION_DOT": 0.00205415, "MEAN_MOTION_DDOT": 0}, "tle": {"line1": "1 34429U 93036RW  25342.62711140  .00205415  00000+0  51030-2 0  9998", "line2": "2 34429  73.9713 176.9416 0006226  20.7468  39.4398 15.39418995893854"}}, "geometry": {"type": "Point", "coordinates": [3.6277555514557402, -25.86178688399843]}}, {"type": "Feature", "properties": {"norad_id": 34430, "name": "COSMOS 2251 DEB", "group": "cosmos-2251-debris", "lat": 52.29824766342867, "lon": 108.11046404937873, "alt_km": 764.8613349138368, "timestamp": "2025-12-09T05:43:21.120741+00:00", "meta": {"OBJECT_NAME": "COSMOS 2251 DEB", "OBJECT_ID": "1993-036RX", "EPOCH": "2025-12-08T07:28:08.610528", "MEAN_MOTION": 14.3961089, "ECCENTRICITY": 0.00601376, "INCLINATION": 74.0522, "RA_OF_ASC_NODE": 311.5327, "ARG_OF_PERICENTER": 22.2528, "MEAN_ANOMALY": 338.1215, "EPHEMERIS_TYPE": 0, "CLASSIFICATION_TYPE": "U", "NORAD_CAT_ID": 34430, "ELEMENT_SET_NO": 999, "REV_AT_EPOCH": 87891, "BSTAR": 0.00089279605, "MEAN_MOTION_DOT": 2.824e-05, "MEAN_MOTION_DDOT": 0}, "tle": {"line1": "1 34430U 93036RX  25342.31121077  .00002824  00000+0  89280-3 0  9998", "line2": "2 34430  74.0522 311.5327 0060137  22.2528 338.1215 14.39610890878913"}}, "geometry": {"type": "Point", "coordinates": [108.11046404937873, 52.29824766342867]}}, {"type": "Feature", "properties": {"norad_id": 34431, "name": "COSMOS 2251 DEB", "group": "cosmos-2251-debris", "lat": 16.835330225137216, "lon": -3.4185589267116634, "alt_km": 747.1952836545861, "timestamp": "2025-12-09T05:43:21.120752+00:00", "meta": {"OBJECT_NAME": "COSMOS 2251 DEB", "OBJECT_ID": "1993-036RY", "EPOCH": "2025-12-08T15:31:18.609024", "MEAN_MOTION": 14.28755354, "ECCENTRICITY": 0.0068461, "INCLINATION": 74.0745, "RA_OF_ASC_NODE": 182.6084, "ARG_OF_PERICENTER": 169.4203, "MEAN_ANOMALY": 190.8406, "EPHEMERIS_TYPE": 0, "CLASSIFICATION_TYPE": "U", "NORAD_CAT_ID": 34431, "ELEMENT_SET_NO": 999, "REV_AT_EPOCH": 87084, "BSTAR": 0.0010028, "MEAN_MOTION_DOT": 2.564e-05, "MEAN_MOTION_DDOT": 0}, "tle": {"line1": "1 34431U 93036RY  25342.64674316  .00002564  00000+0  10028-2 0  9998", "line2": "2 34431  74.0745 182.6084 0068461 169.4203 190.8406 14.28755354870842"}}, "geometry": {"type": "Point", "coordinates": [-3.4185589267116634, 16.835330225137216]}}]}